#aV2015  3 30  0  0  0.00000000     288 DD+AD WGS84 FIT  NGA
## 1838  86400.00000000   300.00000000 57111 0.0000000000000
+   31     1  2  3  4  5  6  7  8  9 10 11 12 13 14 15 16 17
+         18 19 20 21 22 23 24 25 27 28 29 30 31 32  0  0  0
+          0  0  0  0  0  0  0  0  0  0  0  0  0  0  0  0  0
+          0  0  0  0  0  0  0  0  0  0  0  0  0  0  0  0  0
+          0  0  0  0  0  0  0  0  0  0  0  0  0  0  0  0  0
++         2  2  2  2  2  2  2  2  2  2  2  2  2  2  2  2  2
++         2  2  2  2  2  2  2  2  2  2  2  2  2  2  0  0  0
++         0  0  0  0  0  0  0  0  0  0  0  0  0  0  0  0  0
++         0  0  0  0  0  0  0  0  0  0  0  0  0  0  0  0  0
++         0  0  0  0  0  0  0  0  0  0  0  0  0  0  0  0  0
%c cc cc ccc ccc cccc cccc cccc cccc ccccc ccccc ccccc ccccc
%c cc cc ccc ccc cccc cccc cccc cccc ccccc ccccc ccccc ccccc
%f  0.0000000  0.000000000  0.00000000000  0.000000000000000
%f  0.0000000  0.000000000  0.00000000000  0.000000000000000
%i    0    0    0    0      0      0      0      0         0
%i    0    0    0    0      0      0      0      0         0
/*      NGA, ST. LOUIS,MO.                                  
/*   EPHEMERIS COMPUTED FROM  1 DAYS OF DATA                
/*   EPOCHA SMOOTHER                                       
/* CCCCCCCCCCCCCCCCCCCCCCCCCCCCCCCCCCCCCCCCCCCCCCCCCCCCCCCCC
*  2015  3 30 18 30  0.00000000
P  1 -22752.055774 -13729.796516  -2183.963444     -7.364441                    
V  1   3608.282992  -1051.699315 -31503.320403      0.004473                    
P  2   5796.455616  18188.465682  19007.895995    556.745240                    
V  2 -21567.206809  -8921.214756  14945.064825      0.023443                    
P  3 -13314.278786 -14174.086991  18081.831025    277.343108                    
V  3    575.177174 -23008.183544 -17662.258478      0.153949                    
P  4 -16823.214917 -17611.732055 -11226.378095    -10.110132                    
V  4  13483.689273   3740.804452 -26573.383987     -0.009111                    
P  5   3395.950657  26094.957859  -2857.651229   -260.150628                    
V  5  -3189.419081   3760.424634  31283.224315      0.048855                    
P  6 -10402.008563  11534.603811  21544.358658    122.695673                    
V  6 -24106.844401 -12933.244984  -4724.943794      0.102007                    
P  7 -24004.194952  -4988.159021 -10566.292989    451.675708                    
V  7 -10813.120247  -8191.669327  27815.324335      0.028650                    
P  8  -2218.479026 -17573.768616  20195.905868     19.017844                    
V  8  20647.547354  13955.624639  13957.298248      0.004429                    
P  9 -23125.792867   4685.937668  12197.693800   -125.825900                    
V  9  11732.161567 -10421.540712  26209.354508     -0.090219                    
P 10  -9951.761186  19300.204873  14619.273639   -169.075853                    
V 10  -3571.389665 -19338.577265  22933.940551     -0.013983                    
P 11 -20935.099180 -12270.899669 -11479.474177   -567.943404                    
V 11  14340.804864  -1919.059172 -25126.390612     -0.025811                    
P 12  10860.990722  17739.074318  16559.745595    280.812179                    
V 12  -1166.784092  21045.780717 -21444.397324      0.030648                    
P 13  -2178.084073  16733.384636 -20691.386788   -101.281090                    
V 13 -23527.761997  10763.074952  11143.433359     -0.034081                    
P 14  20465.373013 -15745.881315   6099.942255     74.567818                    
V 14   7819.016046  -1226.423782 -30720.736254     -0.028058                    
P 15  11648.393583  11049.739225 -21270.949686   -240.705565                    
V 15 -21809.031854  15721.797185  -3474.155732     -0.021969                    
P 16  -1404.204203 -26160.376834  -2914.467873   -143.314748                    
V 16   2245.240321  -3603.234911  32368.386508      0.035406                    
P 17 -21077.435026  15491.813238   4192.272247   -163.782811                    
V 17  -5604.979510    260.472016 -31537.701018     -0.019846                    
P 18  15000.771198  -6417.449545 -20429.826689    390.212571                    
V 18   2746.602992  27124.798472  -6659.732218      0.028449                    
P 19  -7074.392262 -13374.098349 -22009.378039   -505.717299                    
V 19  24545.100490 -12382.979323     86.636036     -0.012878                    
P 20  -5490.200013  23492.934104  10874.710109    305.155906                    
V 20  -5044.667086 -13663.621825  26628.676735      0.039983                    
P 21  23178.019450   1223.242437 -12547.457285   -431.650682                    
V 21  13877.382611  10185.558572  24866.669835     -0.038237                    
P 22  10464.277582 -18711.025156 -15343.272199    334.276225                    
V 22   4148.093632  19851.250710 -21245.296510      0.042759                    
P 23 -18372.451934  -4475.083225  18953.806828    -98.603789                    
V 23  19329.780390 -13730.749953  15178.775317     -0.025398                    
P 24  21515.278803  14853.645770  -5139.665845    -45.842494                    
V 24  -7044.606219   -365.701985 -30609.414814     -0.006309                    
P 25  14763.064240   4045.557347  21636.191851    -15.350162                    
V 25    912.142146  27595.955919  -5598.056711     -0.032861                    
P 27   4040.480938 -18147.788393 -18937.200952     61.528781                    
V 27  20966.173445 -11853.184705  15944.313182      0.026668                    
P 28 -12247.719716  14308.342119 -18071.188592    429.544231                    
V 28   -703.175639 -24220.865972 -18175.135700      0.026202                    
P 29  21986.648118   -785.034964  14875.144055    601.258301                    
V 29 -15490.017492  10863.136125  23562.709994      0.024131                    
P 30 -18787.037296   3672.304077 -18446.944918    -75.964658                    
V 30 -19085.238316 -13614.566936  16683.100416      0.032381                    
P 31   7710.810247 -12817.831690  22082.463008    319.863795                    
V 31  24183.480470  13449.268391   -309.409780     -0.009381                    
P 32  -4457.810373 -25374.691214   7524.121815   -188.356265                    
V 32   2952.564430  -9339.757528 -29168.171880      0.094759                    
EOF
